{
  "type": "FeatureCollection",
  "features": [
    {
      "type": "Feature",
      "properties": {
        "norad_id": 39773,
        "name": "EUTELSAT 3B",
        "group": "eutelsat",
        "lat": 0.0784933323583462,
        "lon": 65.51184498349073,
        "alt_km": 35805.14481795561,
        "timestamp": "2025-12-12T22:42:12.221434+00:00",
        "meta_object_name": "EUTELSAT 3B",
        "meta_object_id": "2014-030A",
        "meta_epoch": "2025-12-12T03:13:23.493216",
        "meta_mean_motion": 1.00270499,
        "meta_eccentricity": 0.00045969,
        "meta_inclination": 0.0614,
        "meta_ra_of_asc_node": 347.8073,
        "meta_arg_of_pericenter": 242.4386,
        "meta_mean_anomaly": 262.2867,
        "meta_ephemeris_type": 0,
        "meta_classification_type": "U",
        "meta_norad_cat_id": 39773,
        "meta_element_set_no": 999,
        "meta_rev_at_epoch": 4219,
        "meta_bstar": 0,
        "meta_mean_motion_dot": 2.9e-07,
        "meta_mean_motion_ddot": 0,
        "tle_line1": "1 39773U 14030A   25346.13429969  .00000029  00000+0  00000+0 0  9999",
        "tle_line2": "2 39773   0.0614 347.8073 0004596 242.4386 262.2867  1.00270499 42198"
      },
      "geometry": {
        "type": "Point",
        "coordinates": [
          65.51184498349073,
          0.0784933323583462
        ]
      }
    },
    {
      "type": "Feature",
      "properties": {
        "norad_id": 40425,
        "name": "EUTELSAT 115 WEST B",
        "group": "eutelsat",
        "lat": 0.0036011110814095555,
        "lon": -52.46167267339829,
        "alt_km": 35786.331773078775,
        "timestamp": "2025-12-12T22:42:12.221446+00:00",
        "meta_object_name": "EUTELSAT 115 WEST B",
        "meta_object_id": "2015-010B",
        "meta_epoch": "2025-12-12T06:05:08.647584",
        "meta_mean_motion": 1.00273318,
        "meta_eccentricity": 1.672e-05,
        "meta_inclination": 0.0099,
        "meta_ra_of_asc_node": 150.4217,
        "meta_arg_of_pericenter": 340.8536,
        "meta_mean_anomaly": 286.3181,
        "meta_ephemeris_type": 0,
        "meta_classification_type": "U",
        "meta_norad_cat_id": 40425,
        "meta_element_set_no": 999,
        "meta_rev_at_epoch": 3951,
        "meta_bstar": 0,
        "meta_mean_motion_dot": -1.5e-07,
        "meta_mean_motion_ddot": 0,
        "tle_line1": "1 40425U 15010B   25346.25357231 -.00000015  00000+0  00000+0 0  9995",
        "tle_line2": "2 40425   0.0099 150.4217 0000167 340.8536 286.3181  1.00273318 39510"
      },
      "geometry": {
        "type": "Point",
        "coordinates": [
          -52.46167267339829,
          0.0036011110814095555
        ]
      }
    },
    {
      "type": "Feature",
      "properties": {
        "norad_id": 40875,
        "name": "EUTELSAT 8 WEST B",
        "group": "eutelsat",
        "lat": 0.06592387023684786,
        "lon": 54.46681986701574,
        "alt_km": 35801.89331161328,
        "timestamp": "2025-12-12T22:42:12.221458+00:00",
        "meta_object_name": "EUTELSAT 8 WEST B",
        "meta_object_id": "2015-039B",
        "meta_epoch": "2025-12-12T04:52:53.067936",
        "meta_mean_motion": 1.00271635,
        "meta_eccentricity": 0.00042073,
        "meta_inclination": 0.0654,
        "meta_ra_of_asc_node": 6.8016,
        "meta_arg_of_pericenter": 255.2683,
        "meta_mean_anomaly": 244.3196,
        "meta_ephemeris_type": 0,
        "meta_classification_type": "U",
        "meta_norad_cat_id": 40875,
        "meta_element_set_no": 999,
        "meta_rev_at_epoch": 3778,
        "meta_bstar": 0,
        "meta_mean_motion_dot": -5.6e-07,
        "meta_mean_motion_ddot": 0,
        "tle_line1": "1 40875U 15039B   25346.20339199 -.00000056  00000+0  00000+0 0  9998",
        "tle_line2": "2 40875   0.0654   6.8016 0004207 255.2683 244.3196  1.00271635 37785"
      },
      "geometry": {
        "type": "Point",
        "coordinates": [
          54.46681986701574,
          0.06592387023684786
        ]
      }
    },
    {
      "type": "Feature",
      "properties": {
        "norad_id": 41310,
        "name": "EUTELSAT 9B",
        "group": "eutelsat",
        "lat": 0.023941809082052595,
        "lon": 71.44801143714929,
        "alt_km": 35805.403644176185,
        "timestamp": "2025-12-12T22:42:12.221470+00:00",
        "meta_object_name": "EUTELSAT 9B",
        "meta_object_id": "2016-005A",
        "meta_epoch": "2025-12-11T22:06:55.623168",
        "meta_mean_motion": 1.00269719,
        "meta_eccentricity": 0.0004684,
        "meta_inclination": 0.0432,
        "meta_ra_of_asc_node": 62.511,
        "meta_arg_of_pericenter": 207.2212,
        "meta_mean_anomaly": 151.8834,
        "meta_ephemeris_type": 0,
        "meta_classification_type": "U",
        "meta_norad_cat_id": 41310,
        "meta_element_set_no": 999,
        "meta_rev_at_epoch": 3623,
        "meta_bstar": 0,
        "meta_mean_motion_dot": 7e-07,
        "meta_mean_motion_ddot": 0,
        "tle_line1": "1 41310U 16005A   25345.92147712  .00000070  00000+0  00000+0 0  9998",
        "tle_line2": "2 41310   0.0432  62.5110 0004684 207.2212 151.8834  1.00269719 36232"
      },
      "geometry": {
        "type": "Point",
        "coordinates": [
          71.44801143714929,
          0.023941809082052595
        ]
      }
    },
    {
      "type": "Feature",
      "properties": {
        "norad_id": 41382,
        "name": "EUTELSAT 65 WEST A",
        "group": "eutelsat",
        "lat": -0.008560542168023875,
        "lon": -2.7397133181892723,
        "alt_km": 35785.82184230811,
        "timestamp": "2025-12-12T22:42:12.221481+00:00",
        "meta_object_name": "EUTELSAT 65 WEST A",
        "meta_object_id": "2016-014A",
        "meta_epoch": "2025-12-12T06:19:22.284768",
        "meta_mean_motion": 1.00272064,
        "meta_eccentricity": 0.0002521,
        "meta_inclination": 0.0514,
        "meta_ra_of_asc_node": 13.1071,
        "meta_arg_of_pericenter": 255.6026,
        "meta_mean_anomaly": 202.1469,
        "meta_ephemeris_type": 0,
        "meta_classification_type": "U",
        "meta_norad_cat_id": 41382,
        "meta_element_set_no": 999,
        "meta_rev_at_epoch": 3566,
        "meta_bstar": 0,
        "meta_mean_motion_dot": -2.66e-06,
        "meta_mean_motion_ddot": 0,
        "tle_line1": "1 41382U 16014A   25346.26345237 -.00000266  00000+0  00000+0 0  9995",
        "tle_line2": "2 41382   0.0514  13.1071 0002521 255.6026 202.1469  1.00272064 35665"
      },
      "geometry": {
        "type": "Point",
        "coordinates": [
          -2.7397133181892723,
          -0.008560542168023875
        ]
      }
    },
    {
      "type": "Feature",
      "properties": {
        "norad_id": 41589,
        "name": "EUTELSAT 117 WEST B",
        "group": "eutelsat",
        "lat": 0.004557701827664771,
        "lon": -54.538742453105066,
        "alt_km": 35785.37752706127,
        "timestamp": "2025-12-12T22:42:12.221493+00:00",
        "meta_object_name": "EUTELSAT 117 WEST B",
        "meta_object_id": "2016-038B",
        "meta_epoch": "2025-12-11T23:13:36.273216",
        "meta_mean_motion": 1.00275784,
        "meta_eccentricity": 5.99e-05,
        "meta_inclination": 0.0087,
        "meta_ra_of_asc_node": 154.6922,
        "meta_arg_of_pericenter": 250.9411,
        "meta_mean_anomaly": 266.7128,
        "meta_ephemeris_type": 0,
        "meta_classification_type": "U",
        "meta_norad_cat_id": 41589,
        "meta_element_set_no": 999,
        "meta_rev_at_epoch": 3478,
        "meta_bstar": 0,
        "meta_mean_motion_dot": -4e-08,
        "meta_mean_motion_ddot": 0,
        "tle_line1": "1 41589U 16038B   25345.96778094 -.00000004  00000+0  00000+0 0  9997",
        "tle_line2": "2 41589   0.0087 154.6922 0000599 250.9411 266.7128  1.00275784 34786"
      },
      "geometry": {
        "type": "Point",
        "coordinates": [
          -54.538742453105066,
          0.004557701827664771
        ]
      }
    },
    {
      "type": "Feature",
      "properties": {
        "norad_id": 42741,
        "name": "EUTELSAT 172B",
        "group": "eutelsat",
        "lat": -0.007130361220527239,
        "lon": -125.58684498246514,
        "alt_km": 35786.772757088955,
        "timestamp": "2025-12-12T22:42:12.221515+00:00",
        "meta_object_name": "EUTELSAT 172B",
        "meta_object_id": "2017-029B",
        "meta_epoch": "2025-12-12T05:01:38.705664",
        "meta_mean_motion": 1.00270008,
        "meta_eccentricity": 1.125e-05,
        "meta_inclination": 0.0256,
        "meta_ra_of_asc_node": 150.9223,
        "meta_arg_of_pericenter": 201.7173,
        "meta_mean_anomaly": 335.9201,
        "meta_ephemeris_type": 0,
        "meta_classification_type": "U",
        "meta_norad_cat_id": 42741,
        "meta_element_set_no": 999,
        "meta_rev_at_epoch": 3185,
        "meta_bstar": 0,
        "meta_mean_motion_dot": 4e-08,
        "meta_mean_motion_ddot": 0,
        "tle_line1": "1 42741U 17029B   25346.20947576  .00000004  00000+0  00000+0 0  9999",
        "tle_line2": "2 42741   0.0256 150.9223 0000112 201.7173 335.9201  1.00270008 31858"
      },
      "geometry": {
        "type": "Point",
        "coordinates": [
          -125.58684498246514,
          -0.007130361220527239
        ]
      }
    }
  ]
}